[{"OBJECT_NAME":"GENMAT-1","OBJECT_ID":"2023-174W","EPOCH":"2026-03-09T18:03:23.351040","MEAN_MOTION":15.32594666,"ECCENTRICITY":0.00074416,"INCLINATION":97.3728,"RA_OF_ASC_NODE":146.8236,"ARG_OF_PERICENTER":169.2515,"MEAN_ANOMALY":190.8888,"EPHEMERIS_TYPE":0,"CLASSIFICATION_TYPE":"U","NORAD_CAT_ID":58276,"ELEMENT_SET_NO":999,"REV_AT_EPOCH":12973,"BSTAR":0.00042157222,"MEAN_MOTION_DOT":0.0001321,"MEAN_MOTION_DDOT":0},{"OBJECT_NAME":"STARLINK-32373","OBJECT_ID":"2024-154W","EPOCH":"2026-03-09T21:27:39.045024","MEAN_MOTION":15.30190008,"ECCENTRICITY":0.00010077,"INCLINATION":53.1592,"RA_OF_ASC_NODE":283.0767,"ARG_OF_PERICENTER":104.6182,"MEAN_ANOMALY":255.493,"EPHEMERIS_TYPE":0,"CLASSIFICATION_TYPE":"U","NORAD_CAT_ID":60923,"ELEMENT_SET_NO":999,"REV_AT_EPOCH":8637,"BSTAR":1.812474e-5,"MEAN_MOTION_DOT":1.78e-6,"MEAN_MOTION_DDOT":0}]
